{"fetched_at":"2026-04-04T02:03:33Z","count":15623,"tles":[{"name":"STARLINK-37194","line1":"1 68397U 26063T   26092.75002315 -.01819410  99872-3 -35726-2 0  9991","line2":"2 68397  97.2815 233.5554 0001610  65.7478 116.0867 16.00255178  2320","category":"Starlink"}]}