{
  "norad_id": 68397,
  "name": "STARLINK-37194",
  "history": [
    {
      "epoch": "2026-04-02T18:00:01.999296Z",
      "apogee_km": 274.7830806687343,
      "perigee_km": 272.6398550923832,
      "latitude_deg": -1.976014787785153,
      "longitude_deg": -47.798295863086494,
      "height_km": 277.6625835848135,
      "semi_major_axis_km": 6651.848467880559,
      "eccentricity": 0.0001611,
      "inclination_deg": 97.2815,
      "raan_deg": 233.5554,
      "arg_perigee_deg": 65.7478,
      "mean_anomaly_deg": 116.0867,
      "mean_motion_rev_day": 16.00255178
    }
  ]
}